HXMT (HUIYAN)           
1 42758U 17034A   26110.96251904  .00002926  00000+0  15153-3 0  9993
2 42758  43.0131 141.5529 0030779 144.2724 216.0192 15.17960599488965
SAOCOM 1A               
1 43641U 18076A   26110.95460644  .00000957  00000+0  12675-3 0  9992
2 43641  97.8894 298.5304 0001556  90.6743 269.4649 14.82152441407623
H-2A R/B                
1 43682U 18084L   26110.90524640  .00016344  00000+0  36903-3 0  9995
2 43682  98.8657 337.3651 0023149 234.4000 125.5087 15.43041686412281
SAOCOM 1B               
1 46265U 20059A   26110.91832013  .00000062  00000+0  14340-4 0  9999
2 46265  97.8886 297.5888 0001555  84.5381 275.6009 14.82141077305005
CSS (TIANHE)            
1 48274U 21035A   26110.92198984  .00030776  00000+0  33518-3 0  9991
2 48274  41.4677 310.7964 0006514 246.3399 113.6757 15.62720710284216
COSMOS 2550             
1 48865U 21056A   26110.57620927 -.00000201  00000+0 -27058-6 0  9995
2 48865  67.1423 274.1769 0008469 269.3687  90.6497 15.33829515269880
CZ-2C R/B               
1 52794U 22058K   26110.45236432  .00035635  00000+0  46560-3 0  9998
2 52794  50.1861 102.9413 0039701  19.5452 340.7031 15.57313469216636
CZ-2C R/B               
1 54039U 22132E   26110.92281528  .00044909  00000+0  44203-3 0  9999
2 54039  97.2941 115.6520 0013013 294.6425  65.3479 15.65762189196971
GSLV R/B                
1 54149U 22138AN  26110.83604141  .00001595  00000+0  13558-3 0  9990
2 54149  87.3824 152.2427 0021400   5.7942 354.3533 14.97006554190236
XRISM                   
1 57800U 23137A   26110.43539008  .00004019  00000+0  22311-3 0  9993
2 57800  31.0035  13.5479 0007499 100.2123 259.9361 15.11949409144110
ACS3                    
1 59588U 24077B   26110.66159517  .00009276  00000+0  72065-2 0  9990
2 59588  97.1862  42.3467 0067469 352.7738   7.2449 13.91534935100036
HTV-X1                  
1 66174U 25241A   26109.66693346  .00005975  00000+0  19778-3 0  9999
2 66174  51.6366 235.4531 0007673 331.4211  28.6349 15.32697623 27223
SZ-21 MODULE            
1 66515U 25246C   26110.85885372  .00036254  00000+0  27243-3 0  9998
2 66515  41.4737 303.1175 0004422 300.3097  59.7308 15.71815104 24703
