[{"OBJECT_NAME":"HXMT (HUIYAN)","OBJECT_ID":"2017-034A","EPOCH":"2026-04-20T23:06:01.645056","MEAN_MOTION":15.17960599,"ECCENTRICITY":0.00307791,"INCLINATION":43.0131,"RA_OF_ASC_NODE":141.5529,"ARG_OF_PERICENTER":144.2724,"MEAN_ANOMALY":216.0192,"EPHEMERIS_TYPE":0,"CLASSIFICATION_TYPE":"U","NORAD_CAT_ID":42758,"ELEMENT_SET_NO":999,"REV_AT_EPOCH":48896,"BSTAR":0.00015153428,"MEAN_MOTION_DOT":2.926e-5,"MEAN_MOTION_DDOT":0},{"OBJECT_NAME":"SAOCOM 1A","OBJECT_ID":"2018-076A","EPOCH":"2026-04-20T22:54:37.996416","MEAN_MOTION":14.82152441,"ECCENTRICITY":0.00015567,"INCLINATION":97.8894,"RA_OF_ASC_NODE":298.5304,"ARG_OF_PERICENTER":90.6743,"MEAN_ANOMALY":269.4649,"EPHEMERIS_TYPE":0,"CLASSIFICATION_TYPE":"U","NORAD_CAT_ID":43641,"ELEMENT_SET_NO":999,"REV_AT_EPOCH":40762,"BSTAR":0.00012675091,"MEAN_MOTION_DOT":9.57e-6,"MEAN_MOTION_DDOT":0},{"OBJECT_NAME":"H-2A R/B","OBJECT_ID":"2018-084L","EPOCH":"2026-04-20T21:43:33.288960","MEAN_MOTION":15.43041686,"ECCENTRICITY":0.00231496,"INCLINATION":98.8657,"RA_OF_ASC_NODE":337.3651,"ARG_OF_PERICENTER":234.4,"MEAN_ANOMALY":125.5087,"EPHEMERIS_TYPE":0,"CLASSIFICATION_TYPE":"U","NORAD_CAT_ID":43682,"ELEMENT_SET_NO":999,"REV_AT_EPOCH":41228,"BSTAR":0.00036902971,"MEAN_MOTION_DOT":0.00016344,"MEAN_MOTION_DDOT":0},{"OBJECT_NAME":"SAOCOM 1B","OBJECT_ID":"2020-059A","EPOCH":"2026-04-20T22:02:22.859232","MEAN_MOTION":14.82141077,"ECCENTRICITY":0.0001555,"INCLINATION":97.8886,"RA_OF_ASC_NODE":297.5888,"ARG_OF_PERICENTER":84.5381,"MEAN_ANOMALY":275.6009,"EPHEMERIS_TYPE":0,"CLASSIFICATION_TYPE":"U","NORAD_CAT_ID":46265,"ELEMENT_SET_NO":999,"REV_AT_EPOCH":30500,"BSTAR":1.4340035e-5,"MEAN_MOTION_DOT":6.2e-7,"MEAN_MOTION_DDOT":0},{"OBJECT_NAME":"CSS (TIANHE)","OBJECT_ID":"2021-035A","EPOCH":"2026-04-20T22:07:39.922176","MEAN_MOTION":15.6272071,"ECCENTRICITY":0.00065145,"INCLINATION":41.4677,"RA_OF_ASC_NODE":310.7964,"ARG_OF_PERICENTER":246.3399,"MEAN_ANOMALY":113.6757,"EPHEMERIS_TYPE":0,"CLASSIFICATION_TYPE":"U","NORAD_CAT_ID":48274,"ELEMENT_SET_NO":999,"REV_AT_EPOCH":28421,"BSTAR":0.00033518255,"MEAN_MOTION_DOT":0.00030776,"MEAN_MOTION_DDOT":0},{"OBJECT_NAME":"COSMOS 2550","OBJECT_ID":"2021-056A","EPOCH":"2026-04-20T13:49:44.480928","MEAN_MOTION":15.33829515,"ECCENTRICITY":0.00084695,"INCLINATION":67.1423,"RA_OF_ASC_NODE":274.1769,"ARG_OF_PERICENTER":269.3687,"MEAN_ANOMALY":90.6497,"EPHEMERIS_TYPE":0,"CLASSIFICATION_TYPE":"U","NORAD_CAT_ID":48865,"ELEMENT_SET_NO":999,"REV_AT_EPOCH":26988,"BSTAR":-2.70583e-7,"MEAN_MOTION_DOT":-2.01e-6,"MEAN_MOTION_DDOT":0},{"OBJECT_NAME":"CZ-2C R/B","OBJECT_ID":"2022-058K","EPOCH":"2026-04-20T10:51:24.277248","MEAN_MOTION":15.57313469,"ECCENTRICITY":0.0039701,"INCLINATION":50.1861,"RA_OF_ASC_NODE":102.9413,"ARG_OF_PERICENTER":19.5452,"MEAN_ANOMALY":340.7031,"EPHEMERIS_TYPE":0,"CLASSIFICATION_TYPE":"U","NORAD_CAT_ID":52794,"ELEMENT_SET_NO":999,"REV_AT_EPOCH":21663,"BSTAR":0.00046559668,"MEAN_MOTION_DOT":0.00035635,"MEAN_MOTION_DDOT":0},{"OBJECT_NAME":"CZ-2C R/B","OBJECT_ID":"2022-132E","EPOCH":"2026-04-20T22:08:51.240192","MEAN_MOTION":15.65762189,"ECCENTRICITY":0.00130131,"INCLINATION":97.2941,"RA_OF_ASC_NODE":115.652,"ARG_OF_PERICENTER":294.6425,"MEAN_ANOMALY":65.3479,"EPHEMERIS_TYPE":0,"CLASSIFICATION_TYPE":"U","NORAD_CAT_ID":54039,"ELEMENT_SET_NO":999,"REV_AT_EPOCH":19697,"BSTAR":0.00044202659,"MEAN_MOTION_DOT":0.00044909,"MEAN_MOTION_DDOT":0},{"OBJECT_NAME":"GSLV R/B","OBJECT_ID":"2022-138AN","EPOCH":"2026-04-20T20:03:53.977824","MEAN_MOTION":14.97006554,"ECCENTRICITY":0.00214009,"INCLINATION":87.3824,"RA_OF_ASC_NODE":152.2427,"ARG_OF_PERICENTER":5.7942,"MEAN_ANOMALY":354.3533,"EPHEMERIS_TYPE":0,"CLASSIFICATION_TYPE":"U","NORAD_CAT_ID":54149,"ELEMENT_SET_NO":999,"REV_AT_EPOCH":19023,"BSTAR":0.00013558104,"MEAN_MOTION_DOT":1.595e-5,"MEAN_MOTION_DDOT":0},{"OBJECT_NAME":"XRISM","OBJECT_ID":"2023-137A","EPOCH":"2026-04-20T10:26:57.702912","MEAN_MOTION":15.11949409,"ECCENTRICITY":0.00074996,"INCLINATION":31.0035,"RA_OF_ASC_NODE":13.5479,"ARG_OF_PERICENTER":100.2123,"MEAN_ANOMALY":259.9361,"EPHEMERIS_TYPE":0,"CLASSIFICATION_TYPE":"U","NORAD_CAT_ID":57800,"ELEMENT_SET_NO":999,"REV_AT_EPOCH":14411,"BSTAR":0.00022310818,"MEAN_MOTION_DOT":4.019e-5,"MEAN_MOTION_DDOT":0},{"OBJECT_NAME":"ACS3","OBJECT_ID":"2024-077B","EPOCH":"2026-04-20T15:52:41.822688","MEAN_MOTION":13.91534935,"ECCENTRICITY":0.00674697,"INCLINATION":97.1862,"RA_OF_ASC_NODE":42.3467,"ARG_OF_PERICENTER":352.7738,"MEAN_ANOMALY":7.2449,"EPHEMERIS_TYPE":0,"CLASSIFICATION_TYPE":"U","NORAD_CAT_ID":59588,"ELEMENT_SET_NO":999,"REV_AT_EPOCH":10003,"BSTAR":0.0072065049,"MEAN_MOTION_DOT":9.276e-5,"MEAN_MOTION_DDOT":0},{"OBJECT_NAME":"HTV-X1","OBJECT_ID":"2025-241A","EPOCH":"2026-04-19T16:00:23.050944","MEAN_MOTION":15.32697623,"ECCENTRICITY":0.00076736,"INCLINATION":51.6366,"RA_OF_ASC_NODE":235.4531,"ARG_OF_PERICENTER":331.4211,"MEAN_ANOMALY":28.6349,"EPHEMERIS_TYPE":0,"CLASSIFICATION_TYPE":"U","NORAD_CAT_ID":66174,"ELEMENT_SET_NO":999,"REV_AT_EPOCH":2722,"BSTAR":0.00019777608,"MEAN_MOTION_DOT":5.975e-5,"MEAN_MOTION_DDOT":0},{"OBJECT_NAME":"SZ-21 MODULE","OBJECT_ID":"2025-246C","EPOCH":"2026-04-20T20:36:44.961408","MEAN_MOTION":15.71815104,"ECCENTRICITY":0.00044222,"INCLINATION":41.4737,"RA_OF_ASC_NODE":303.1175,"ARG_OF_PERICENTER":300.3097,"MEAN_ANOMALY":59.7308,"EPHEMERIS_TYPE":0,"CLASSIFICATION_TYPE":"U","NORAD_CAT_ID":66515,"ELEMENT_SET_NO":999,"REV_AT_EPOCH":2470,"BSTAR":0.00027243356,"MEAN_MOTION_DOT":0.00036254,"MEAN_MOTION_DDOT":0}]
